[{"OBJECT_NAME":"LEMUR-2-ALISIA","OBJECT_ID":"2025-009DB","EPOCH":"2026-04-26T10:49:34.150080","MEAN_MOTION":15.01934997,"ECCENTRICITY":0.0003185,"INCLINATION":97.6914,"RA_OF_ASC_NODE":198.9993,"ARG_OF_PERICENTER":44.1918,"MEAN_ANOMALY":315.9561,"EPHEMERIS_TYPE":0,"CLASSIFICATION_TYPE":"U","NORAD_CAT_ID":62706,"ELEMENT_SET_NO":999,"REV_AT_EPOCH":9239,"BSTAR":0.00083836,"MEAN_MOTION_DOT":0.00010919,"MEAN_MOTION_DDOT":0},{"OBJECT_NAME":"LEMUR-2-ROUNDTRIPPER","OBJECT_ID":"2025-009DG","EPOCH":"2026-04-26T12:14:48.522048","MEAN_MOTION":15.0295373,"ECCENTRICITY":0.0002963,"INCLINATION":97.7238,"RA_OF_ASC_NODE":199.3002,"ARG_OF_PERICENTER":317.6785,"MEAN_ANOMALY":42.4211,"EPHEMERIS_TYPE":0,"CLASSIFICATION_TYPE":"U","NORAD_CAT_ID":62711,"ELEMENT_SET_NO":999,"REV_AT_EPOCH":6986,"BSTAR":0.00087219,"MEAN_MOTION_DOT":0.00011673,"MEAN_MOTION_DDOT":0},{"OBJECT_NAME":"LEMUR-2-MYNAMEISJEFF","OBJECT_ID":"2025-009DH","EPOCH":"2026-04-26T12:12:35.288928","MEAN_MOTION":15.0294968,"ECCENTRICITY":0.0002137,"INCLINATION":97.7287,"RA_OF_ASC_NODE":199.6482,"ARG_OF_PERICENTER":16.7632,"MEAN_ANOMALY":343.3663,"EPHEMERIS_TYPE":0,"CLASSIFICATION_TYPE":"U","NORAD_CAT_ID":62712,"ELEMENT_SET_NO":999,"REV_AT_EPOCH":6986,"BSTAR":0.0008369,"MEAN_MOTION_DOT":0.00011195,"MEAN_MOTION_DDOT":0},{"OBJECT_NAME":"LEMUR-2-LEIA-PHILIP","OBJECT_ID":"2025-052AN","EPOCH":"2026-04-25T16:10:32.525184","MEAN_MOTION":14.97165562,"ECCENTRICITY":0.00053056,"INCLINATION":97.6898,"RA_OF_ASC_NODE":8.4997,"ARG_OF_PERICENTER":54.9031,"MEAN_ANOMALY":305.2688,"EPHEMERIS_TYPE":0,"CLASSIFICATION_TYPE":"U","NORAD_CAT_ID":63246,"ELEMENT_SET_NO":999,"REV_AT_EPOCH":6081,"BSTAR":0.00021480084,"MEAN_MOTION_DOT":2.425e-5,"MEAN_MOTION_DDOT":0},{"OBJECT_NAME":"LEMUR-2-LIA-MARTIN","OBJECT_ID":"2025-052AQ","EPOCH":"2026-04-26T10:12:36.794304","MEAN_MOTION":14.97326521,"ECCENTRICITY":0.000355,"INCLINATION":97.6942,"RA_OF_ASC_NODE":9.6489,"ARG_OF_PERICENTER":24.0701,"MEAN_ANOMALY":336.0686,"EPHEMERIS_TYPE":0,"CLASSIFICATION_TYPE":"U","NORAD_CAT_ID":63248,"ELEMENT_SET_NO":999,"REV_AT_EPOCH":6093,"BSTAR":0.00050698,"MEAN_MOTION_DOT":5.828e-5,"MEAN_MOTION_DDOT":0},{"OBJECT_NAME":"LEMUR-2-DELOITTE-1","OBJECT_ID":"2025-052BB","EPOCH":"2026-04-26T11:07:06.916800","MEAN_MOTION":14.9722567,"ECCENTRICITY":9.1e-5,"INCLINATION":97.6988,"RA_OF_ASC_NODE":10.0097,"ARG_OF_PERICENTER":60.2008,"MEAN_ANOMALY":299.9304,"EPHEMERIS_TYPE":0,"CLASSIFICATION_TYPE":"U","NORAD_CAT_ID":63259,"ELEMENT_SET_NO":999,"REV_AT_EPOCH":6095,"BSTAR":0.00045045,"MEAN_MOTION_DOT":5.157e-5,"MEAN_MOTION_DDOT":0},{"OBJECT_NAME":"LEMUR-2-EMERSONROSE","OBJECT_ID":"2025-052BD","EPOCH":"2026-04-26T05:20:13.353792","MEAN_MOTION":14.98686323,"ECCENTRICITY":7.56e-5,"INCLINATION":97.6946,"RA_OF_ASC_NODE":10.2266,"ARG_OF_PERICENTER":202.4054,"MEAN_ANOMALY":157.7136,"EPHEMERIS_TYPE":0,"CLASSIFICATION_TYPE":"U","NORAD_CAT_ID":63261,"ELEMENT_SET_NO":999,"REV_AT_EPOCH":6095,"BSTAR":0.00037296,"MEAN_MOTION_DOT":4.424e-5,"MEAN_MOTION_DDOT":0},{"OBJECT_NAME":"LEMUR-2-MARACHE-FRAN","OBJECT_ID":"2025-052BE","EPOCH":"2026-04-26T10:18:12.204288","MEAN_MOTION":14.99506573,"ECCENTRICITY":0.0002826,"INCLINATION":97.6927,"RA_OF_ASC_NODE":10.6751,"ARG_OF_PERICENTER":187.2529,"MEAN_ANOMALY":172.8654,"EPHEMERIS_TYPE":0,"CLASSIFICATION_TYPE":"U","NORAD_CAT_ID":63262,"ELEMENT_SET_NO":999,"REV_AT_EPOCH":6100,"BSTAR":0.00057593,"MEAN_MOTION_DOT":7.015e-5,"MEAN_MOTION_DDOT":0},{"OBJECT_NAME":"LEMUR-2-THEFALCONER","OBJECT_ID":"2025-052BG","EPOCH":"2026-04-25T16:19:48.571392","MEAN_MOTION":14.97013264,"ECCENTRICITY":0.00023011,"INCLINATION":97.6917,"RA_OF_ASC_NODE":8.9152,"ARG_OF_PERICENTER":137.1105,"MEAN_ANOMALY":223.0296,"EPHEMERIS_TYPE":0,"CLASSIFICATION_TYPE":"U","NORAD_CAT_ID":63264,"ELEMENT_SET_NO":999,"REV_AT_EPOCH":6083,"BSTAR":0.00031490281,"MEAN_MOTION_DOT":3.568e-5,"MEAN_MOTION_DDOT":0},{"OBJECT_NAME":"LEMUR-2-UNTITLED-SC","OBJECT_ID":"2025-061A","EPOCH":"2026-04-26T10:42:52.867872","MEAN_MOTION":15.13096385,"ECCENTRICITY":0.0020856,"INCLINATION":97.5608,"RA_OF_ASC_NODE":92.2117,"ARG_OF_PERICENTER":84.2051,"MEAN_ANOMALY":276.1557,"EPHEMERIS_TYPE":0,"CLASSIFICATION_TYPE":"U","NORAD_CAT_ID":63351,"ELEMENT_SET_NO":999,"REV_AT_EPOCH":5976,"BSTAR":0.00024252,"MEAN_MOTION_DOT":4.248e-5,"MEAN_MOTION_DDOT":0},{"OBJECT_NAME":"LEMUR-2-ESPERANZA","OBJECT_ID":"2025-061B","EPOCH":"2026-04-26T11:49:41.403648","MEAN_MOTION":15.13183492,"ECCENTRICITY":0.0020368,"INCLINATION":97.5613,"RA_OF_ASC_NODE":92.3393,"ARG_OF_PERICENTER":83.507,"MEAN_ANOMALY":276.8479,"EPHEMERIS_TYPE":0,"CLASSIFICATION_TYPE":"U","NORAD_CAT_ID":63352,"ELEMENT_SET_NO":999,"REV_AT_EPOCH":5977,"BSTAR":0.00026586,"MEAN_MOTION_DOT":4.674e-5,"MEAN_MOTION_DDOT":0},{"OBJECT_NAME":"LEMUR-2-KREMPEL-BRO2","OBJECT_ID":"2025-061C","EPOCH":"2026-04-26T11:14:29.333184","MEAN_MOTION":15.13609022,"ECCENTRICITY":0.0021282,"INCLINATION":97.5663,"RA_OF_ASC_NODE":92.7826,"ARG_OF_PERICENTER":76.7419,"MEAN_ANOMALY":283.6184,"EPHEMERIS_TYPE":0,"CLASSIFICATION_TYPE":"U","NORAD_CAT_ID":63353,"ELEMENT_SET_NO":999,"REV_AT_EPOCH":5978,"BSTAR":0.00028437,"MEAN_MOTION_DOT":5.067e-5,"MEAN_MOTION_DDOT":0},{"OBJECT_NAME":"LEMUR-2-THERMORAPTOR","OBJECT_ID":"2025-061D","EPOCH":"2026-04-26T12:27:30.684096","MEAN_MOTION":15.13678794,"ECCENTRICITY":0.0021052,"INCLINATION":97.5668,"RA_OF_ASC_NODE":92.899,"ARG_OF_PERICENTER":75.7432,"MEAN_ANOMALY":284.6135,"EPHEMERIS_TYPE":0,"CLASSIFICATION_TYPE":"U","NORAD_CAT_ID":63354,"ELEMENT_SET_NO":999,"REV_AT_EPOCH":5979,"BSTAR":0.00026477,"MEAN_MOTION_DOT":4.722e-5,"MEAN_MOTION_DDOT":0},{"OBJECT_NAME":"LEMUR-2-NEUROSPICY","OBJECT_ID":"2025-061E","EPOCH":"2026-04-26T08:41:55.114944","MEAN_MOTION":15.1379074,"ECCENTRICITY":0.0018867,"INCLINATION":97.5592,"RA_OF_ASC_NODE":92.41,"ARG_OF_PERICENTER":79.681,"MEAN_ANOMALY":280.6547,"EPHEMERIS_TYPE":0,"CLASSIFICATION_TYPE":"U","NORAD_CAT_ID":63355,"ELEMENT_SET_NO":999,"REV_AT_EPOCH":5977,"BSTAR":0.00027762,"MEAN_MOTION_DOT":4.965e-5,"MEAN_MOTION_DDOT":0},{"OBJECT_NAME":"LEMUR-2-TILLINFINITY","OBJECT_ID":"2025-061F","EPOCH":"2026-04-26T08:26:30.906240","MEAN_MOTION":15.14374291,"ECCENTRICITY":0.0019957,"INCLINATION":97.5579,"RA_OF_ASC_NODE":92.6535,"ARG_OF_PERICENTER":68.881,"MEAN_ANOMALY":291.4553,"EPHEMERIS_TYPE":0,"CLASSIFICATION_TYPE":"U","NORAD_CAT_ID":63356,"ELEMENT_SET_NO":999,"REV_AT_EPOCH":5979,"BSTAR":0.00030931,"MEAN_MOTION_DOT":5.635e-5,"MEAN_MOTION_DDOT":0},{"OBJECT_NAME":"LEMUR-2-KREMPEL-BRO1","OBJECT_ID":"2025-061G","EPOCH":"2026-04-26T10:49:06.100320","MEAN_MOTION":15.1418878,"ECCENTRICITY":0.0020674,"INCLINATION":97.5581,"RA_OF_ASC_NODE":92.6821,"ARG_OF_PERICENTER":69.6447,"MEAN_ANOMALY":290.7004,"EPHEMERIS_TYPE":0,"CLASSIFICATION_TYPE":"U","NORAD_CAT_ID":63357,"ELEMENT_SET_NO":999,"REV_AT_EPOCH":5980,"BSTAR":0.00025006,"MEAN_MOTION_DOT":4.52e-5,"MEAN_MOTION_DDOT":0}]
