LEMUR-2-ALISIA          
1 62706U 25009DB  26116.45108970  .00010919  00000+0  83836-3 0  9997
2 62706  97.6914 198.9993 0003185  44.1918 315.9561 15.01934997 92392
LEMUR-2-ROUNDTRIPPER    
1 62711U 25009DG  26116.51028382  .00011673  00000+0  87219-3 0  9995
2 62711  97.7238 199.3002 0002963 317.6785  42.4211 15.02953730 69864
LEMUR-2-MYNAMEISJEFF    
1 62712U 25009DH  26116.50874177  .00011195  00000+0  83690-3 0  9994
2 62712  97.7287 199.6482 0002137  16.7632 343.3663 15.02949680 69868
LEMUR-2-LEIA-PHILIP     
1 63246U 25052AN  26115.67398756  .00002425  00000+0  21480-3 0  9991
2 63246  97.6898   8.4997 0005305  54.9031 305.2688 14.97165562 60815
LEMUR-2-LIA-MARTIN      
1 63248U 25052AQ  26116.42542586  .00005828  00000+0  50698-3 0  9992
2 63248  97.6942   9.6489 0003550  24.0701 336.0686 14.97326521 60935
LEMUR-2-DELOITTE-1      
1 63259U 25052BB  26116.46327450  .00005157  00000+0  45045-3 0  9994
2 63259  97.6988  10.0097 0000910  60.2008 299.9304 14.97225670 60956
LEMUR-2-EMERSONROSE     
1 63261U 25052BD  26116.22237678  .00004424  00000+0  37296-3 0  9998
2 63261  97.6946  10.2266 0000756 202.4054 157.7136 14.98686323 60953
LEMUR-2-MARACHE-FRAN    
1 63262U 25052BE  26116.42930792  .00007015  00000+0  57593-3 0  9999
2 63262  97.6927  10.6751 0002826 187.2529 172.8654 14.99506573 61002
LEMUR-2-THEFALCONER     
1 63264U 25052BG  26115.68042328  .00003568  00000+0  31490-3 0  9994
2 63264  97.6917   8.9152 0002301 137.1105 223.0296 14.97013264 60839
LEMUR-2-UNTITLED-SC     
1 63351U 25061A   26116.44644523  .00004248  00000+0  24252-3 0  9995
2 63351  97.5608  92.2117 0020856  84.2051 276.1557 15.13096385 59769
LEMUR-2-ESPERANZA       
1 63352U 25061B   26116.49284032  .00004674  00000+0  26586-3 0  9991
2 63352  97.5613  92.3393 0020368  83.5070 276.8479 15.13183492 59771
LEMUR-2-KREMPEL-BRO2    
1 63353U 25061C   26116.46839506  .00005067  00000+0  28437-3 0  9995
2 63353  97.5663  92.7826 0021282  76.7419 283.6184 15.13609022 59781
LEMUR-2-THERMORAPTOR    
1 63354U 25061D   26116.51910514  .00004722  00000+0  26477-3 0  9990
2 63354  97.5668  92.8990 0021052  75.7432 284.6135 15.13678794 59799
LEMUR-2-NEUROSPICY      
1 63355U 25061E   26116.36244346  .00004965  00000+0  27762-3 0  9994
2 63355  97.5592  92.4100 0018867  79.6810 280.6547 15.13790740 59775
LEMUR-2-TILLINFINITY    
1 63356U 25061F   26116.35174660  .00005635  00000+0  30931-3 0  9992
2 63356  97.5579  92.6535 0019957  68.8810 291.4553 15.14374291 59795
LEMUR-2-KREMPEL-BRO1    
1 63357U 25061G   26116.45076505  .00004520  00000+0  25006-3 0  9992
2 63357  97.5581  92.6821 0020674  69.6447 290.7004 15.14188780 59801
